NORAD_CAT_ID,OBJECT_NAME,OBJECT_TYPE,EPOCH,MEAN_MOTION,ECCENTRICITY,INCLINATION,RA_OF_ASC_NODE,ARG_OF_PERICENTER,MEAN_ANOMALY,BSTAR,MEAN_MOTION_DOT,MEAN_MOTION_DDOT,TLE_LINE0,TLE_LINE1,TLE_LINE2,SEMIMAJOR_AXIS,PERIOD,APOGEE,PERIGEE,DECAYED
51811.0,STARLINK-3569,PAYLOAD,2022-06-01 20:00:01,15.08876857,0.000186,53.2222,40.0567,48.5808,338.903,-0.0044605,-0.00070653,0.0,0 STARLINK-3569,1 51811U 22017AV  22152.83334491 -.00070653  00000-0 -44605-2 0  9999,2 51811  53.2222  40.0567 0001860  48.5808 338.9030 15.08876857 16204,6917.768,95.435,540.919,538.346,0.0
51811.0,STARLINK-3569,PAYLOAD,2022-06-03 03:40:28,15.08845637,0.0001844,53.223,34.1316,51.7264,308.3894,-7.8323e-05,-1.535e-05,0.0,0 STARLINK-3569,1 51811U 22017AV  22154.15310816 -.00001535  00000-0 -78323-4 0  9990,2 51811  53.2230  34.1316 0001844  51.7264 308.3894 15.08845637 16406,6917.863,95.437,541.004,538.453,0.0
51811.0,STARLINK-3569,PAYLOAD,2022-06-03 08:26:37,15.08846555,0.0001829,53.2234,33.24,56.4998,303.6169,-4.8683e-05,-1.063e-05,0.0,0 STARLINK-3569,1 51811U 22017AV  22154.35182600 -.00001063  00000-0 -48683-4 0  9992,2 51811  53.2234  33.2400 0001829  56.4998 303.6169 15.08846555 16338,6917.86,95.437,540.991,538.46,0.0
51811.0,STARLINK-3569,PAYLOAD,2022-06-03 17:58:57,15.08840679,0.0002154,53.2233,31.457,55.7254,304.3941,-0.00010641,-1.981e-05,0.0,0 STARLINK-3569,1 51811U 22017AV  22154.74927154 -.00001981  00000-0 -10641-3 0  9997,2 51811  53.2233  31.4570 0002154  55.7254 304.3941 15.08840679 16397,6917.878000000002,95.438,541.2330000000002,538.253,0.0
51811.0,STARLINK-3569,PAYLOAD,2022-06-04 01:55:53,15.08808704,0.0001963,53.2233,29.9703,58.0444,302.0738,0.00021577,3.145e-05,0.0,0 STARLINK-3569,1 51811U 22017AV  22155.08047890  .00003145  00000-0  21577-3 0  9997,2 51811  53.2233  29.9703 0001963  58.0444 302.0738 15.08808704 16540,6917.976,95.44,541.1990000000002,538.4830000000002,0.0
51811.0,STARLINK-3569,PAYLOAD,2022-06-04 08:17:25,15.0882383,0.0001927,53.2233,28.7811,56.4302,303.6874,0.00012063,1.631e-05,0.0,0 STARLINK-3569,1 51811U 22017AV  22155.34543626  .00001631  00000-0  12063-3 0  9992,2 51811  53.2233  28.7811 0001927  56.4302 303.6874 15.08823830 16581,6917.93,95.439,541.128,538.462,0.0
51811.0,STARLINK-3569,PAYLOAD,2022-06-05 20:00:01,15.08844943,0.0001742,53.2217,22.1024,49.3316,117.2774,-0.0014114,-0.00022683,0.0,0 STARLINK-3569,1 51811U 22017AV  22156.83334491 -.00022683  00000-0 -14114-2 0  9995,2 51811  53.2217  22.1024 0001742  49.3316 117.2774 15.08844943 16809,6917.865,95.437,540.935,538.525,0.0
51811.0,STARLINK-3569,PAYLOAD,2022-06-05 22:00:00,15.08833932,0.0001807,53.2216,21.7288,47.9756,211.5344,-0.00012918,-2.343e-05,0.0,0 STARLINK-3569,1 51811U 22017AV  22156.91667824 -.00002343  00000-0 -12918-3 0  9995,2 51811  53.2216  21.7288 0001807  47.9756 211.5344 15.08833932  1305,6917.899,95.438,541.014,538.514,0.0
51811.0,STARLINK-3569,PAYLOAD,2022-06-06 12:00:02,15.088232500000002,0.0001662,53.2213,19.1085,52.7068,137.1554,0.0026684,0.00042416,0.0,0 STARLINK-3569,1 51811U 22017AV  22157.50002315  .00042416  00000-0  26684-2 0  9996,2 51811  53.2213  19.1085 0001662  52.7068 137.1554 15.08823250 16918,6917.932,95.439,540.946,538.6469999999998,0.0
51811.0,STARLINK-3569,PAYLOAD,2022-06-06 14:00:01,15.08834321,0.0001681,53.2214,18.7345,54.6392,228.0539,0.002043,0.00032371,0.0,0 STARLINK-3569,1 51811U 22017AV  22157.58334491  .00032371  00000-0  20430-2 0  9999,2 51811  53.2214  18.7345 0001681  54.6392 228.0539 15.08834321  1306,6917.898,95.438,540.9259999999998,538.6,0.0
51811.0,STARLINK-3569,PAYLOAD,2022-06-06 22:00:00,15.08851069,0.0001848,53.2215,17.2401,48.9284,245.3692,-0.00032261,-5.42e-05,0.0,0 STARLINK-3569,1 51811U 22017AV  22157.91667824 -.00005420  00000-0 -32261-3 0  9998,2 51811  53.2215  17.2401 0001848  48.9284 245.3692 15.08851069  1305,6917.847,95.437,540.99,538.433,0.0
51811.0,STARLINK-3569,PAYLOAD,2022-06-07 06:00:00,15.0886668,0.0001746,53.2213,15.7431,46.8581,259.04400000000004,-0.0037019,-0.00058767,0.0,0 STARLINK-3569,1 51811U 22017AV  22158.25001157 -.00058767  00000-0 -37019-2 0  9994,2 51811  53.2213  15.7431 0001746  46.8581 259.0440 15.08866680 17027,6917.799,95.436,540.872,538.456,0.0
51811.0,STARLINK-3569,PAYLOAD,2022-06-07 14:00:01,15.0882788,0.000166,53.2216,14.2458,53.0114,264.4906,0.0019928,0.00031559,0.0,0 STARLINK-3569,1 51811U 22017AV  22158.58334491  .00031559  00000-0  19928-2 0  9997,2 51811  53.2216  14.2458 0001660  53.0114 264.4906 15.08827880  1300,6917.917,95.438,540.931,538.634,0.0
51811.0,STARLINK-3569,PAYLOAD,2022-06-07 22:00:00,15.08849256,0.000183,53.2217,12.7515,46.6671,282.4337,-0.00087475,-0.00014186,0.0,0 STARLINK-3569,1 51811U 22017AV  22158.91667824 -.00014186  00000-0 -87475-3 0  9995,2 51811  53.2217  12.7515 0001830  46.6671 282.4337 15.08849256 17129,6917.852,95.437,540.9830000000002,538.451,0.0
51811.0,STARLINK-3569,PAYLOAD,2022-06-08 14:00:01,15.08833525,0.0001625,53.222,9.7573,50.2523,302.0362,0.0010642,0.00016686,0.0,0 STARLINK-3569,1 51811U 22017AV  22159.58334491  .00016686  00000-0  10642-2 0  9996,2 51811  53.2220   9.7573 0001625  50.2523 302.0362 15.08833525  1304,6917.9,95.438,540.889,538.641,0.0
51811.0,STARLINK-3569,PAYLOAD,2022-06-08 22:00:01,15.08822889,0.0001804,53.2221,8.263,43.8344,320.1134,-0.00080534,-0.00013076,0.0,0 STARLINK-3569,1 51811U 22017AV  22159.91668981 -.00013076  00000-0 -80534-3 0  9997,2 51811  53.2221   8.2630 0001804  43.8344 320.1134 15.08822889 17273,6917.933000000001,95.439,541.0459999999998,538.55,0.0
51811.0,STARLINK-3569,PAYLOAD,2022-06-09 14:00:01,15.08836636,0.0001591,53.2214,5.2689,51.1594,335.9034,-0.00035899,-5.996e-05,0.0,0 STARLINK-3569,1 51811U 22017AV  22160.58334491 -.00005996  00000-0 -35899-3 0  9994,2 51811  53.2214   5.2689 0001591  51.1594 335.9034 15.08836636  1303,6917.891,95.438,540.856,538.655,0.0
51811.0,STARLINK-3569,PAYLOAD,2022-06-09 22:00:00,15.08820873,0.0001789,53.221,3.7753,44.1287,354.5137,0.0012035,0.00018908,0.0,0 STARLINK-3569,1 51811U 22017AV  22160.91667824  .00018908  00000-0  12035-2 0  9991,2 51811  53.2210   3.7753 0001789  44.1287 354.5137 15.08820873 17421,6917.939,95.439,541.0409999999998,538.566,0.0
51811.0,STARLINK-3569,PAYLOAD,2022-06-10 14:00:01,15.08845722,0.0001595,53.222,0.7804,50.8203,10.9927,0.00089894,0.0001405,0.0,0 STARLINK-3569,1 51811U 22017AV  22161.58334491  .00014050  00000-0  89894-3 0  9998,2 51811  53.2220   0.7804 0001595  50.8203  10.9927 15.08845722  1303,6917.863,95.437,540.831,538.625,0.0
51811.0,STARLINK-3569,PAYLOAD,2022-06-10 22:00:00,15.08850825,0.0001747,53.2219,359.2858,43.9267,29.4962,-0.0010648,-0.00017199,0.0,0 STARLINK-3569,1 51811U 22017AV  22161.91667824 -.00017199  00000-0 -10648-2 0  9993,2 51811  53.2219 359.2858 0001747  43.9267  29.4962 15.08850825  1308,6917.847,95.437,540.9209999999998,538.504,0.0
51811.0,STARLINK-3569,PAYLOAD,2022-06-11 04:00:00,15.08853037,0.0001641999999999,53.2215,358.1628,42.642,309.48,-0.0025155,-0.00040114,0.0,0 STARLINK-3569,1 51811U 22017AV  22162.16667824 -.00040114  00000-0 -25155-2 0  9993,2 51811  53.2215 358.1628 0001642  42.6420 309.4800 15.08853037 17619,6917.840999999999,95.437,540.841,538.57,0.0
51811.0,STARLINK-3569,PAYLOAD,2022-06-11 22:00:00,15.08840846,0.000172,53.2216,354.7972,43.9607,64.2492,-0.00051791,-8.521e-05,0.0,0 STARLINK-3569,1 51811U 22017AV  22162.91667824 -.00008521  00000-0 -51791-3 0  9998,2 51811  53.2216 354.7972 0001720  43.9607  64.2492 15.08840846 17721,6917.878000000002,95.438,540.933,538.553,0.0
51811.0,STARLINK-3569,PAYLOAD,2022-06-12 14:00:01,15.08836298,0.0001603,53.2214,351.8031,53.6721,77.7023,-0.00015708,-2.787e-05,0.0,0 STARLINK-3569,1 51811U 22017AV  22163.58334491 -.00002787  00000-0 -15708-3 0  9999,2 51811  53.2214 351.8031 0001603  53.6721  77.7023 15.08836298  1300,6917.892,95.438,540.866,538.648,0.0
51811.0,STARLINK-3569,PAYLOAD,2022-06-12 22:00:00,15.0881648,0.0001757,53.221,350.3084,46.7231,96.2481,0.0025021,0.00039732,0.0,0 STARLINK-3569,1 51811U 22017AV  22163.91667824  .00039732  00000-0  25021-2 0  9991,2 51811  53.2210 350.3084 0001757  46.7231  96.2481 15.08816480  1302,6917.9519999999975,95.439,541.033,538.602,0.0
51811.0,STARLINK-3569,PAYLOAD,2022-06-13 04:00:00,15.08858786,0.0001686,53.2206,349.185,48.365,13.2916,-0.0015454,-0.00024812,0.0,0 STARLINK-3569,1 51811U 22017AV  22164.16667824 -.00024812  00000-0 -15454-2 0  9993,2 51811  53.2206 349.1850 0001686  48.3650  13.2916 15.08858786 17919,6917.823,95.436,540.854,538.5219999999998,0.0
51811.0,STARLINK-3569,PAYLOAD,2022-06-13 14:00:01,15.08879588,0.000158,53.2208,347.3143,53.5506,112.607,-0.0035674,-0.00056678,0.0,0 STARLINK-3569,1 51811U 22017AV  22164.58334491 -.00056678  00000-0 -35674-2 0  9991,2 51811  53.2208 347.3143 0001580  53.5506 112.6070 15.08879588  1301,6917.759,95.435,540.717,538.531,0.0
51811.0,STARLINK-3569,PAYLOAD,2022-06-13 22:00:00,15.08818479,0.0001709,53.2206,345.8195,44.7345,133.0518,0.0024322,0.0003861,0.0,0 STARLINK-3569,1 51811U 22017AV  22164.91667824  .00038610  00000-0  24322-2 0  9999,2 51811  53.2206 345.8195 0001709  44.7345 133.0518 15.08818479 18039,6917.946,95.439,540.993,538.629,0.0
51811.0,STARLINK-3569,PAYLOAD,2022-06-14 14:00:01,15.08838404,0.0001665,53.2205,342.8253,53.9259,147.0248,-0.00041827,-6.938e-05,0.0,0 STARLINK-3569,1 51811U 22017AV  22165.58334491 -.00006938  00000-0 -41827-3 0  9994,2 51811  53.2205 342.8253 0001665  53.9259 147.0248 15.08838404 18133,6917.885,95.438,540.9019999999998,538.5980000000002,0.0
51811.0,STARLINK-3569,PAYLOAD,2022-06-14 22:00:00,15.08821005,0.0001781,53.2205,341.3305,45.6976,166.8444,0.00041817,6.37e-05,0.0,0 STARLINK-3569,1 51811U 22017AV  22165.91667824  .00006370  00000-0  41817-3 0  9997,2 51811  53.2205 341.3305 0001781  45.6976 166.8444 15.08821005  1305,6917.938,95.439,541.036,538.571,0.0
